{
  "type": "FeatureCollection",
  "features": [
    {
      "type": "Feature",
      "properties": {
        "norad_id": 66508,
        "name": "STARLINK-35608",
        "group": "last-30-days",
        "lat": 38.900777724025716,
        "lon": -64.42458873104098,
        "alt_km": 357.95217833994684,
        "timestamp": "2025-12-04T03:47:53.336109+00:00",
        "meta_object_name": "STARLINK-35608",
        "meta_object_id": "2025-263Z",
        "meta_epoch": "2025-12-03T12:00:02.998944",
        "meta_mean_motion": 15.71355916,
        "meta_eccentricity": 0.0001763,
        "meta_inclination": 42.9989,
        "meta_ra_of_asc_node": 179.5342,
        "meta_arg_of_pericenter": 264.0484,
        "meta_mean_anomaly": 84.0985,
        "meta_ephemeris_type": 0,
        "meta_classification_type": "U",
        "meta_norad_cat_id": 66508,
        "meta_element_set_no": 999,
        "meta_rev_at_epoch": 415,
        "meta_bstar": -0.016677,
        "meta_mean_motion_dot": -0.01937663,
        "meta_mean_motion_ddot": 0,
        "tle_line1": "1 66508U 25263Z   25337.50003471 -.01937663  00000+0 -16677-1 0  9997",
        "tle_line2": "2 66508  42.9989 179.5342 0001763 264.0484  84.0985 15.71355916  4151"
      },
      "geometry": {
        "type": "Point",
        "coordinates": [
          -64.42458873104098,
          38.900777724025716
        ]
      }
    },
    {
      "type": "Feature",
      "properties": {
        "norad_id": 66509,
        "name": "STARLINK-35598",
        "group": "last-30-days",
        "lat": 35.94195620764804,
        "lon": -55.531942515854155,
        "alt_km": 358.3473511164548,
        "timestamp": "2025-12-04T03:47:53.336118+00:00",
        "meta_object_name": "STARLINK-35598",
        "meta_object_id": "2025-263AA",
        "meta_epoch": "2025-12-03T12:00:02.998944",
        "meta_mean_motion": 15.71357849,
        "meta_eccentricity": 0.0001833,
        "meta_inclination": 42.9994,
        "meta_ra_of_asc_node": 179.514,
        "meta_arg_of_pericenter": 262.404,
        "meta_mean_anomaly": 93.4119,
        "meta_ephemeris_type": 0,
        "meta_classification_type": "U",
        "meta_norad_cat_id": 66509,
        "meta_element_set_no": 999,
        "meta_rev_at_epoch": 415,
        "meta_bstar": -0.016735,
        "meta_mean_motion_dot": -0.0194378,
        "meta_mean_motion_ddot": 0,
        "tle_line1": "1 66509U 25263AA  25337.50003471 -.01943780  00000+0 -16735-1 0  9990",
        "tle_line2": "2 66509  42.9994 179.5140 0001833 262.4040  93.4119 15.71357849  4152"
      },
      "geometry": {
        "type": "Point",
        "coordinates": [
          -55.531942515854155,
          35.94195620764804
        ]
      }
    },
    {
      "type": "Feature",
      "properties": {
        "norad_id": 66510,
        "name": "STARLINK-35600",
        "group": "last-30-days",
        "lat": 38.22492024837137,
        "lon": -62.1358666460766,
        "alt_km": 358.0183111768456,
        "timestamp": "2025-12-04T03:47:53.336128+00:00",
        "meta_object_name": "STARLINK-35600",
        "meta_object_id": "2025-263AB",
        "meta_epoch": "2025-12-03T12:00:02.998944",
        "meta_mean_motion": 15.71353643,
        "meta_eccentricity": 0.0001784,
        "meta_inclination": 42.9991,
        "meta_ra_of_asc_node": 179.5288,
        "meta_arg_of_pericenter": 262.2521,
        "meta_mean_anomaly": 87.8135,
        "meta_ephemeris_type": 0,
        "meta_classification_type": "U",
        "meta_norad_cat_id": 66510,
        "meta_element_set_no": 999,
        "meta_rev_at_epoch": 415,
        "meta_bstar": -0.016663,
        "meta_mean_motion_dot": -0.01936089,
        "meta_mean_motion_ddot": 0,
        "tle_line1": "1 66510U 25263AB  25337.50003471 -.01936089  00000+0 -16663-1 0  9996",
        "tle_line2": "2 66510  42.9991 179.5288 0001784 262.2521  87.8135 15.71353643  4154"
      },
      "geometry": {
        "type": "Point",
        "coordinates": [
          -62.1358666460766,
          38.22492024837137
        ]
      }
    },
    {
      "type": "Feature",
      "properties": {
        "norad_id": 66511,
        "name": "STARLINK-35444",
        "group": "last-30-days",
        "lat": 36.742363975603205,
        "lon": -57.68552581352219,
        "alt_km": 358.153328167411,
        "timestamp": "2025-12-04T03:47:53.336138+00:00",
        "meta_object_name": "STARLINK-35444",
        "meta_object_id": "2025-263AC",
        "meta_epoch": "2025-12-03T12:00:02.998944",
        "meta_mean_motion": 15.71354657,
        "meta_eccentricity": 0.0001748,
        "meta_inclination": 42.9994,
        "meta_ra_of_asc_node": 179.5188,
        "meta_arg_of_pericenter": 260.9008,
        "meta_mean_anomaly": 92.9993,
        "meta_ephemeris_type": 0,
        "meta_classification_type": "U",
        "meta_norad_cat_id": 66511,
        "meta_element_set_no": 999,
        "meta_rev_at_epoch": 415,
        "meta_bstar": -0.016678,
        "meta_mean_motion_dot": -0.01937617,
        "meta_mean_motion_ddot": 0,
        "tle_line1": "1 66511U 25263AC  25337.50003471 -.01937617  00000+0 -16678-1 0  9991",
        "tle_line2": "2 66511  42.9994 179.5188 0001748 260.9008  92.9993 15.71354657  4157"
      },
      "geometry": {
        "type": "Point",
        "coordinates": [
          -57.68552581352219,
          36.742363975603205
        ]
      }
    },
    {
      "type": "Feature",
      "properties": {
        "norad_id": 66512,
        "name": "STARLINK-35366",
        "group": "last-30-days",
        "lat": 35.100783005321404,
        "lon": -53.41618861567807,
        "alt_km": 358.3733424309921,
        "timestamp": "2025-12-04T03:47:53.336148+00:00",
        "meta_object_name": "STARLINK-35366",
        "meta_object_id": "2025-263AD",
        "meta_epoch": "2025-12-03T12:00:02.998944",
        "meta_mean_motion": 15.71356399,
        "meta_eccentricity": 0.0001773,
        "meta_inclination": 42.999,
        "meta_ra_of_asc_node": 179.5095,
        "meta_arg_of_pericenter": 260.7111,
        "meta_mean_anomaly": 97.0226,
        "meta_ephemeris_type": 0,
        "meta_classification_type": "U",
        "meta_norad_cat_id": 66512,
        "meta_element_set_no": 999,
        "meta_rev_at_epoch": 415,
        "meta_bstar": -0.016715,
        "meta_mean_motion_dot": -0.01941594,
        "meta_mean_motion_ddot": 0,
        "tle_line1": "1 66512U 25263AD  25337.50003471 -.01941594  00000+0 -16715-1 0  9993",
        "tle_line2": "2 66512  42.9990 179.5095 0001773 260.7111  97.0226 15.71356399  4152"
      },
      "geometry": {
        "type": "Point",
        "coordinates": [
          -53.41618861567807,
          35.100783005321404
        ]
      }
    },
    {
      "type": "Feature",
      "properties": {
        "norad_id": 66513,
        "name": "STARLINK-35692",
        "group": "last-30-days",
        "lat": 37.504767114206665,
        "lon": -59.890967622713866,
        "alt_km": 358.15345299632827,
        "timestamp": "2025-12-04T03:47:53.336160+00:00",
        "meta_object_name": "STARLINK-35692",
        "meta_object_id": "2025-263AE",
        "meta_epoch": "2025-12-03T12:00:02.998944",
        "meta_mean_motion": 15.7135406,
        "meta_eccentricity": 0.0001871,
        "meta_inclination": 42.9987,
        "meta_ra_of_asc_node": 179.5235,
        "meta_arg_of_pericenter": 261.7649,
        "meta_mean_anomaly": 90.2179,
        "meta_ephemeris_type": 0,
        "meta_classification_type": "U",
        "meta_norad_cat_id": 66513,
        "meta_element_set_no": 999,
        "meta_rev_at_epoch": 415,
        "meta_bstar": -0.016675,
        "meta_mean_motion_dot": -0.01937441,
        "meta_mean_motion_ddot": 0,
        "tle_line1": "1 66513U 25263AE  25337.50003471 -.01937441  00000+0 -16675-1 0  9995",
        "tle_line2": "2 66513  42.9987 179.5235 0001871 261.7649  90.2179 15.71354060  4156"
      },
      "geometry": {
        "type": "Point",
        "coordinates": [
          -59.890967622713866,
          37.504767114206665
        ]
      }
    },
    {
      "type": "Feature",
      "properties": {
        "norad_id": 66514,
        "name": "SENTINEL-6B",
        "group": "last-30-days",
        "lat": 46.8013155795547,
        "lon": -151.39745860658013,
        "alt_km": 1320.110899349831,
        "timestamp": "2025-12-04T03:47:53.336170+00:00",
        "meta_object_name": "SENTINEL-6B",
        "meta_object_id": "2025-264A",
        "meta_epoch": "2025-12-03T12:35:26.831040",
        "meta_mean_motion": 12.85877502,
        "meta_eccentricity": 0.0011536,
        "meta_inclination": 66.0389,
        "meta_ra_of_asc_node": 181.6659,
        "meta_arg_of_pericenter": 268.6185,
        "meta_mean_anomaly": 91.3511,
        "meta_ephemeris_type": 0,
        "meta_classification_type": "U",
        "meta_norad_cat_id": 66514,
        "meta_element_set_no": 999,
        "meta_rev_at_epoch": 210,
        "meta_bstar": 0.00029302,
        "meta_mean_motion_dot": 1e-07,
        "meta_mean_motion_ddot": 0,
        "tle_line1": "1 66514U 25264A   25337.52461610  .00000010  00000+0  29302-3 0  9995",
        "tle_line2": "2 66514  66.0389 181.6659 0011536 268.6185  91.3511 12.85877502  2102"
      },
      "geometry": {
        "type": "Point",
        "coordinates": [
          -151.39745860658013,
          46.8013155795547
        ]
      }
    }
  ]
}